<?xml version="1.0" encoding="UTF-8"?>
<ndm xmlns:xsi="http://www.w3.org/2001/XMLSchema-instance" xsi:noNamespaceSchemaLocation="https://sanaregistry.org/r/ndmxml_unqualified/ndmxml-2.0.0-master-2.0.xsd">
<omm id="CCSDS_OMM_VERS" version="2.0">
<header><CREATION_DATE/><ORIGINATOR/></header><body><segment><metadata><OBJECT_NAME>IRIDIUM 39</OBJECT_NAME><OBJECT_ID>1997-069D</OBJECT_ID><CENTER_NAME>EARTH</CENTER_NAME><REF_FRAME>TEME</REF_FRAME><TIME_SYSTEM>UTC</TIME_SYSTEM><MEAN_ELEMENT_THEORY>SGP4</MEAN_ELEMENT_THEORY></metadata><data><meanElements><EPOCH>2025-03-17T23:34:10.649280</EPOCH><MEAN_MOTION>14.48995600</MEAN_MOTION><ECCENTRICITY>.0015974</ECCENTRICITY><INCLINATION>86.3869</INCLINATION><RA_OF_ASC_NODE>250.2235</RA_OF_ASC_NODE><ARG_OF_PERICENTER>249.1259</ARG_OF_PERICENTER><MEAN_ANOMALY>110.8235</MEAN_ANOMALY></meanElements><tleParameters><EPHEMERIS_TYPE>0</EPHEMERIS_TYPE><CLASSIFICATION_TYPE>U</CLASSIFICATION_TYPE><NORAD_CAT_ID>25042</NORAD_CAT_ID><ELEMENT_SET_NO>999</ELEMENT_SET_NO><REV_AT_EPOCH>43601</REV_AT_EPOCH><BSTAR>.55218E-3</BSTAR><MEAN_MOTION_DOT>.2116E-4</MEAN_MOTION_DOT><MEAN_MOTION_DDOT>0</MEAN_MOTION_DDOT></tleParameters></data></segment></body></omm>
<omm id="CCSDS_OMM_VERS" version="2.0">
<header><CREATION_DATE/><ORIGINATOR/></header><body><segment><metadata><OBJECT_NAME>IRIDIUM 38</OBJECT_NAME><OBJECT_ID>1997-069E</OBJECT_ID><CENTER_NAME>EARTH</CENTER_NAME><REF_FRAME>TEME</REF_FRAME><TIME_SYSTEM>UTC</TIME_SYSTEM><MEAN_ELEMENT_THEORY>SGP4</MEAN_ELEMENT_THEORY></metadata><data><meanElements><EPOCH>2025-03-18T02:03:46.854144</EPOCH><MEAN_MOTION>14.37972043</MEAN_MOTION><ECCENTRICITY>.0003589</ECCENTRICITY><INCLINATION>86.3896</INCLINATION><RA_OF_ASC_NODE>271.4983</RA_OF_ASC_NODE><ARG_OF_PERICENTER>64.2385</ARG_OF_PERICENTER><MEAN_ANOMALY>295.9183</MEAN_ANOMALY></meanElements><tleParameters><EPHEMERIS_TYPE>0</EPHEMERIS_TYPE><CLASSIFICATION_TYPE>U</CLASSIFICATION_TYPE><NORAD_CAT_ID>25043</NORAD_CAT_ID><ELEMENT_SET_NO>999</ELEMENT_SET_NO><REV_AT_EPOCH>43312</REV_AT_EPOCH><BSTAR>.37788E-3</BSTAR><MEAN_MOTION_DOT>.1161E-4</MEAN_MOTION_DOT><MEAN_MOTION_DDOT>0</MEAN_MOTION_DDOT></tleParameters></data></segment></body></omm>
<omm id="CCSDS_OMM_VERS" version="2.0">
<header><CREATION_DATE/><ORIGINATOR/></header><body><segment><metadata><OBJECT_NAME>IRIDIUM 42</OBJECT_NAME><OBJECT_ID>1997-077A</OBJECT_ID><CENTER_NAME>EARTH</CENTER_NAME><REF_FRAME>TEME</REF_FRAME><TIME_SYSTEM>UTC</TIME_SYSTEM><MEAN_ELEMENT_THEORY>SGP4</MEAN_ELEMENT_THEORY></metadata><data><meanElements><EPOCH>2025-03-18T12:54:36.594720</EPOCH><MEAN_MOTION>14.36220145</MEAN_MOTION><ECCENTRICITY>.0002705</ECCENTRICITY><INCLINATION>86.3902</INCLINATION><RA_OF_ASC_NODE>277.3724</RA_OF_ASC_NODE><ARG_OF_PERICENTER>80.0096</ARG_OF_PERICENTER><MEAN_ANOMALY>280.1406</MEAN_ANOMALY></meanElements><tleParameters><EPHEMERIS_TYPE>0</EPHEMERIS_TYPE><CLASSIFICATION_TYPE>U</CLASSIFICATION_TYPE><NORAD_CAT_ID>25077</NORAD_CAT_ID><ELEMENT_SET_NO>999</ELEMENT_SET_NO><REV_AT_EPOCH>42818</REV_AT_EPOCH><BSTAR>.35568E-3</BSTAR><MEAN_MOTION_DOT>.1057E-4</MEAN_MOTION_DOT><MEAN_MOTION_DDOT>0</MEAN_MOTION_DDOT></tleParameters></data></segment></body></omm>
<omm id="CCSDS_OMM_VERS" version="2.0">
<header><CREATION_DATE/><ORIGINATOR/></header><body><segment><metadata><OBJECT_NAME>IRIDIUM 44</OBJECT_NAME><OBJECT_ID>1997-077B</OBJECT_ID><CENTER_NAME>EARTH</CENTER_NAME><REF_FRAME>TEME</REF_FRAME><TIME_SYSTEM>UTC</TIME_SYSTEM><MEAN_ELEMENT_THEORY>SGP4</MEAN_ELEMENT_THEORY></metadata><data><meanElements><EPOCH>2025-03-17T21:40:32.302560</EPOCH><MEAN_MOTION>14.40099942</MEAN_MOTION><ECCENTRICITY>.0001943</ECCENTRICITY><INCLINATION>86.3902</INCLINATION><RA_OF_ASC_NODE>259.7841</RA_OF_ASC_NODE><ARG_OF_PERICENTER>35.8142</ARG_OF_PERICENTER><MEAN_ANOMALY>324.3187</MEAN_ANOMALY></meanElements><tleParameters><EPHEMERIS_TYPE>0</EPHEMERIS_TYPE><CLASSIFICATION_TYPE>U</CLASSIFICATION_TYPE><NORAD_CAT_ID>25078</NORAD_CAT_ID><ELEMENT_SET_NO>999</ELEMENT_SET_NO><REV_AT_EPOCH>43056</REV_AT_EPOCH><BSTAR>.40688E-3</BSTAR><MEAN_MOTION_DOT>.1303E-4</MEAN_MOTION_DOT><MEAN_MOTION_DDOT>0</MEAN_MOTION_DDOT></tleParameters></data></segment></body></omm>
<omm id="CCSDS_OMM_VERS" version="2.0">
<header><CREATION_DATE/><ORIGINATOR/></header><body><segment><metadata><OBJECT_NAME>IRIDIUM 45</OBJECT_NAME><OBJECT_ID>1997-082A</OBJECT_ID><CENTER_NAME>EARTH</CENTER_NAME><REF_FRAME>TEME</REF_FRAME><TIME_SYSTEM>UTC</TIME_SYSTEM><MEAN_ELEMENT_THEORY>SGP4</MEAN_ELEMENT_THEORY></metadata><data><meanElements><EPOCH>2025-03-17T13:42:31.826016</EPOCH><MEAN_MOTION>15.17871434</MEAN_MOTION><ECCENTRICITY>.0123809</ECCENTRICITY><INCLINATION>86.3546</INCLINATION><RA_OF_ASC_NODE>92.2555</RA_OF_ASC_NODE><ARG_OF_PERICENTER>315.0528</ARG_OF_PERICENTER><MEAN_ANOMALY>44.0741</MEAN_ANOMALY></meanElements><tleParameters><EPHEMERIS_TYPE>0</EPHEMERIS_TYPE><CLASSIFICATION_TYPE>U</CLASSIFICATION_TYPE><NORAD_CAT_ID>25104</NORAD_CAT_ID><ELEMENT_SET_NO>999</ELEMENT_SET_NO><REV_AT_EPOCH>43837</REV_AT_EPOCH><BSTAR>.14124E-2</BSTAR><MEAN_MOTION_DOT>.35117E-3</MEAN_MOTION_DOT><MEAN_MOTION_DDOT>0</MEAN_MOTION_DDOT></tleParameters></data></segment></body></omm>
<omm id="CCSDS_OMM_VERS" version="2.0">
<header><CREATION_DATE/><ORIGINATOR/></header><body><segment><metadata><OBJECT_NAME>IRIDIUM 24</OBJECT_NAME><OBJECT_ID>1997-082B</OBJECT_ID><CENTER_NAME>EARTH</CENTER_NAME><REF_FRAME>TEME</REF_FRAME><TIME_SYSTEM>UTC</TIME_SYSTEM><MEAN_ELEMENT_THEORY>SGP4</MEAN_ELEMENT_THEORY></metadata><data><meanElements><EPOCH>2025-03-18T11:29:40.344288</EPOCH><MEAN_MOTION>14.41949557</MEAN_MOTION><ECCENTRICITY>.0012216</ECCENTRICITY><INCLINATION>86.3882</INCLINATION><RA_OF_ASC_NODE>118.7903</RA_OF_ASC_NODE><ARG_OF_PERICENTER>28.6917</ARG_OF_PERICENTER><MEAN_ANOMALY>331.4953</MEAN_ANOMALY></meanElements><tleParameters><EPHEMERIS_TYPE>0</EPHEMERIS_TYPE><CLASSIFICATION_TYPE>U</CLASSIFICATION_TYPE><NORAD_CAT_ID>25105</NORAD_CAT_ID><ELEMENT_SET_NO>999</ELEMENT_SET_NO><REV_AT_EPOCH>43039</REV_AT_EPOCH><BSTAR>.33159E-3</BSTAR><MEAN_MOTION_DOT>.1107E-4</MEAN_MOTION_DOT><MEAN_MOTION_DDOT>0</MEAN_MOTION_DDOT></tleParameters></data></segment></body></omm>
<omm id="CCSDS_OMM_VERS" version="2.0">
<header><CREATION_DATE/><ORIGINATOR/></header><body><segment><metadata><OBJECT_NAME>IRIDIUM 51</OBJECT_NAME><OBJECT_ID>1998-018A</OBJECT_ID><CENTER_NAME>EARTH</CENTER_NAME><REF_FRAME>TEME</REF_FRAME><TIME_SYSTEM>UTC</TIME_SYSTEM><MEAN_ELEMENT_THEORY>SGP4</MEAN_ELEMENT_THEORY></metadata><data><meanElements><EPOCH>2025-03-18T02:12:33.879456</EPOCH><MEAN_MOTION>15.31966371</MEAN_MOTION><ECCENTRICITY>.0098198</ECCENTRICITY><INCLINATION>86.3812</INCLINATION><RA_OF_ASC_NODE>100.6917</RA_OF_ASC_NODE><ARG_OF_PERICENTER>237.2122</ARG_OF_PERICENTER><MEAN_ANOMALY>121.9640</MEAN_ANOMALY></meanElements><tleParameters><EPHEMERIS_TYPE>0</EPHEMERIS_TYPE><CLASSIFICATION_TYPE>U</CLASSIFICATION_TYPE><NORAD_CAT_ID>25262</NORAD_CAT_ID><ELEMENT_SET_NO>999</ELEMENT_SET_NO><REV_AT_EPOCH>43326</REV_AT_EPOCH><BSTAR>.12852E-2</BSTAR><MEAN_MOTION_DOT>.46391E-3</MEAN_MOTION_DOT><MEAN_MOTION_DDOT>0</MEAN_MOTION_DDOT></tleParameters></data></segment></body></omm>
<omm id="CCSDS_OMM_VERS" version="2.0">
<header><CREATION_DATE/><ORIGINATOR/></header><body><segment><metadata><OBJECT_NAME>IRIDIUM 57</OBJECT_NAME><OBJECT_ID>1998-019B</OBJECT_ID><CENTER_NAME>EARTH</CENTER_NAME><REF_FRAME>TEME</REF_FRAME><TIME_SYSTEM>UTC</TIME_SYSTEM><MEAN_ELEMENT_THEORY>SGP4</MEAN_ELEMENT_THEORY></metadata><data><meanElements><EPOCH>2025-03-17T19:25:55.584768</EPOCH><MEAN_MOTION>14.35788931</MEAN_MOTION><ECCENTRICITY>.0002172</ECCENTRICITY><INCLINATION>86.4037</INCLINATION><RA_OF_ASC_NODE>183.5108</RA_OF_ASC_NODE><ARG_OF_PERICENTER>93.5581</ARG_OF_PERICENTER><MEAN_ANOMALY>266.5864</MEAN_ANOMALY></meanElements><tleParameters><EPHEMERIS_TYPE>0</EPHEMERIS_TYPE><CLASSIFICATION_TYPE>U</CLASSIFICATION_TYPE><NORAD_CAT_ID>25273</NORAD_CAT_ID><ELEMENT_SET_NO>999</ELEMENT_SET_NO><REV_AT_EPOCH>41167</REV_AT_EPOCH><BSTAR>.36066E-3</BSTAR><MEAN_MOTION_DOT>.1062E-4</MEAN_MOTION_DOT><MEAN_MOTION_DDOT>0</MEAN_MOTION_DDOT></tleParameters></data></segment></body></omm>

</ndm>
