IRIDIUM 39              
1 25042U 97069D   25076.98206770  .00002116  00000+0  55218-3 0  9996
2 25042  86.3869 250.2235 0015974 249.1259 110.8235 14.48995600436012
IRIDIUM 38              
1 25043U 97069E   25077.08595896  .00001161  00000+0  37788-3 0  9990
2 25043  86.3896 271.4983 0003589  64.2385 295.9183 14.37972043433123
IRIDIUM 42              
1 25077U 97077A   25077.53792355  .00001057  00000+0  35568-3 0  9993
2 25077  86.3902 277.3724 0002705  80.0096 280.1406 14.36220145428182
IRIDIUM 44              
1 25078U 97077B   25076.90315165  .00001303  00000+0  40688-3 0  9997
2 25078  86.3902 259.7841 0001943  35.8142 324.3187 14.40099942430566
IRIDIUM 45              
1 25104U 97082A   25076.57120169  .00035117  00000+0  14124-2 0  9999
2 25104  86.3546  92.2555 0123809 315.0528  44.0741 15.17871434438377
IRIDIUM 24              
1 25105U 97082B   25077.47893917  .00001107  00000+0  33159-3 0  9990
2 25105  86.3882 118.7903 0012216  28.6917 331.4953 14.41949557430390
IRIDIUM 51              
1 25262U 98018A   25077.09205879  .00046391  00000+0  12852-2 0  9996
2 25262  86.3812 100.6917 0098198 237.2122 121.9640 15.31966371433268
IRIDIUM 57              
1 25273U 98019B   25076.80967112  .00001062  00000+0  36066-3 0  9992
2 25273  86.4037 183.5108 0002172  93.5581 266.5864 14.35788931411673
